STARLINK-32174          
1 61509U 24183A   26068.43441954  .00000142  00000+0  16940-4 0  9995
2 61509  53.1611 130.8300 0001353  63.8495 296.2645 15.30197352 79794
2025-313BD              
1 67299U 25313BD  26068.62968741  .00081010  00000+0  27634-2 0  9995
2 67299  97.3970 145.2850 0007287 333.4514  26.6352 15.30002360 10838
